[{"OBJECT_NAME":"GNOMES-4","OBJECT_ID":"2023-185A","EPOCH":"2026-03-09T23:48:26.932032","MEAN_MOTION":15.00198915,"ECCENTRICITY":0.000923,"INCLINATION":97.5118,"RA_OF_ASC_NODE":129.6992,"ARG_OF_PERICENTER":282.2655,"MEAN_ANOMALY":77.7535,"EPHEMERIS_TYPE":0,"CLASSIFICATION_TYPE":"U","NORAD_CAT_ID":58462,"ELEMENT_SET_NO":999,"REV_AT_EPOCH":12441,"BSTAR":0.00042532845,"MEAN_MOTION_DOT":5.265e-5,"MEAN_MOTION_DDOT":0},{"OBJECT_NAME":"STARLINK-35837","OBJECT_ID":"2025-280V","EPOCH":"2026-03-09T21:21:22.331520","MEAN_MOTION":14.983313,"ECCENTRICITY":0.00029338,"INCLINATION":70.0022,"RA_OF_ASC_NODE":334.0388,"ARG_OF_PERICENTER":271.456,"MEAN_ANOMALY":88.6263,"EPHEMERIS_TYPE":0,"CLASSIFICATION_TYPE":"U","NORAD_CAT_ID":66840,"ELEMENT_SET_NO":999,"REV_AT_EPOCH":1610,"BSTAR":0.00041961122,"MEAN_MOTION_DOT":4.917e-5,"MEAN_MOTION_DDOT":0}]
